[{"OBJECT_NAME":"STARLINK-32278","OBJECT_ID":"2024-138B","EPOCH":"2026-03-09T21:23:15.264096","MEAN_MOTION":15.30188317,"ECCENTRICITY":0.00011121,"INCLINATION":53.1602,"RA_OF_ASC_NODE":309.0031,"ARG_OF_PERICENTER":93.5607,"MEAN_ANOMALY":266.5521,"EPHEMERIS_TYPE":0,"CLASSIFICATION_TYPE":"U","NORAD_CAT_ID":60356,"ELEMENT_SET_NO":999,"REV_AT_EPOCH":9065,"BSTAR":4.7715253e-5,"MEAN_MOTION_DOT":1.054e-5,"MEAN_MOTION_DDOT":0},{"OBJECT_NAME":"CZ-4C R\/B","OBJECT_ID":"2021-079B","EPOCH":"2026-03-09T14:04:29.438112","MEAN_MOTION":15.08928015,"ECCENTRICITY":0.0108377,"INCLINATION":98.3883,"RA_OF_ASC_NODE":282.6111,"ARG_OF_PERICENTER":26.1585,"MEAN_ANOMALY":334.506,"EPHEMERIS_TYPE":0,"CLASSIFICATION_TYPE":"U","NORAD_CAT_ID":49123,"ELEMENT_SET_NO":999,"REV_AT_EPOCH":24640,"BSTAR":0.00023549,"MEAN_MOTION_DOT":4.178e-5,"MEAN_MOTION_DDOT":0}]
